     2.100          NAVIGATION                              RINEX VERSION / TYPE
fic2rin                                 09/13/2015 00:15:09 PGM / RUN BY / DATE
                                                            END OF HEADER
 7 15  9 12  8  0  0.0  .484588555992D-03  .181898940355D-11  .000000000000D+00
     .890000000000D+02 -.543437500000D+02  .434946688704D-08  .257423247182D+01
    -.277534127235D-05  .895095639862D-02  .963918864727D-05  .515370162392D+04
     .547200000000D+06 -.156462192535D-06 -.648660363308D+00 -.782310962677D-07
     .969170810266D+00  .201031250000D+03 -.270811124869D+01 -.780603943859D-08
    -.408231290186D-09  .100000000000D+01  .186100000000D+04  .000000000000D+00
     .240000000000D+01  .000000000000D+00 -.111758708954D-07  .890000000000D+02
     .540006000000D+06  .400000000000D+01
 8 15  9 12  8  0  0.0 -.497512519360D-05 -.136424205266D-11  .000000000000D+00
     .530000000000D+02  .223437500000D+02  .485591655413D-08  .588921502282D+00
     .125169754028D-05  .135870010126D-02  .263005495071D-05  .515356849289D+04
     .547200000000D+06 -.204890966415D-07  .141622304349D+01  .111758708954D-07
     .960068021955D+00  .330812500000D+03 -.179376812985D+01 -.849392523465D-08
    -.428589281035D-11  .100000000000D+01  .186100000000D+04  .000000000000D+00
     .340000000000D+01  .000000000000D+00  .745058059692D-08  .530000000000D+02
     .540006000000D+06  .400000000000D+01
 9 15  9 12  8  0  0.0 -.969972461462D-05  .147792889038D-11  .000000000000D+00
     .880000000000D+02  .172500000000D+02  .512449917025D-08 -.176535210625D+01
     .784173607826D-06  .368439708836D-03  .369362533092D-05  .515373058319D+04
     .547200000000D+06  .167638063431D-07 -.172606070723D+01 -.242143869400D-07
     .956290805511D+00  .311031250000D+03  .274557030332D+01 -.847249577060D-08
     .197865384745D-09  .100000000000D+01  .186100000000D+04  .000000000000D+00
     .240000000000D+01  .000000000000D+00  .931322574615D-09  .880000000000D+02
     .540006000000D+06  .400000000000D+01
11 15  9 12  8  0  0.0 -.603701919317D-03 -.238742359215D-11  .000000000000D+00
     .800000000000D+01 -.928750000000D+02  .600667877371D-08  .263756436206D+01
    -.476464629173D-05  .162532634567D-01  .376254320145D-05  .515363065147D+04
     .547200000000D+06  .165775418282D-06  .211613505057D+01 -.968575477600D-07
     .893979369395D+00  .267437500000D+03  .145111699561D+01 -.871214861025D-08
    -.437518224390D-09  .100000000000D+01  .186100000000D+04  .000000000000D+00
     .240000000000D+01  .000000000000D+00 -.121071934700D-07  .800000000000D+01
     .540006000000D+06  .400000000000D+01
12 15  9 12  8  0  0.0  .327366404235D-03  .341060513165D-11  .000000000000D+00
     .540000000000D+02  .858750000000D+02  .375837083695D-08  .207490653296D+01
     .430643558502D-05  .549906224478D-02  .109504908323D-04  .515361503410D+04
     .547200000000D+06 -.141561031342D-06  .421521231834D+00 -.186264514923D-07
     .990312644874D+00  .182468750000D+03  .646976161314D+00 -.761531720853D-08
     .274297139863D-09  .100000000000D+01  .186100000000D+04  .000000000000D+00
     .240000000000D+01  .000000000000D+00 -.125728547573D-07  .540000000000D+02
     .540006000000D+06  .400000000000D+01
13 15  9 12  8  0  0.0 -.148483552039D-03 -.295585778076D-11  .000000000000D+00
     .390000000000D+02 -.125000000000D+00  .474019744825D-08 -.288050038577D+01
    -.167638063431D-07  .471233390272D-02  .379979610443D-05  .515367498207D+04
     .547200000000D+06  .167638063431D-07 -.160921467094D+01  .447034835815D-07
     .972866151574D+00  .310250000000D+03  .208138673633D+01 -.818926968738D-08
     .828605943335D-10  .100000000000D+01  .186100000000D+04  .000000000000D+00
     .240000000000D+01  .000000000000D+00 -.111758708954D-07  .390000000000D+02
     .540006000000D+06  .400000000000D+01
14 15  9 12  8  0  0.0  .352985225618D-04 -.261479726760D-11  .000000000000D+00
     .950000000000D+02  .113437500000D+02  .499020786219D-08 -.946140569318D+00
     .854954123497D-06  .847810925916D-02  .390410423279D-05  .515364356422D+04
     .547200000000D+06 -.372529029846D-07 -.164456995135D+01  .186264514923D-06
     .965368978761D+00  .308812500000D+03 -.195789342265D+01 -.845285209522D-08
     .172507185617D-09  .100000000000D+01  .186100000000D+04  .000000000000D+00
     .340000000000D+01  .000000000000D+00 -.931322574615D-08  .950000000000D+02
     .540006000000D+06  .400000000000D+01
15 15  9 12  8  0  0.0 -.271140132099D-03 -.204636307899D-11  .000000000000D+00
     .350000000000D+02  .219062500000D+02  .565523556326D-08 -.162289297546D+01
     .867992639542D-06  .740880903322D-02  .331737101078D-05  .515370346642D+04
     .547200000000D+06  .316649675369D-07 -.177234097209D+01 -.130385160446D-06
     .932147001561D+00  .296343750000D+03  .401080819632D+00 -.869321925033D-08
     .336085427879D-09  .100000000000D+01  .186100000000D+04  .000000000000D+00
     .240000000000D+01  .000000000000D+00 -.107102096081D-07  .350000000000D+02
     .540006000000D+06  .400000000000D+01
16 15  9 12  8  0  0.0 -.874339602888D-04  .397903932026D-11  .000000000000D+00
     .420000000000D+02  .702812500000D+02  .380873007747D-08  .627540361289D-01
     .367499887943D-05  .808400532696D-02  .102221965790D-04  .515362274742D+04
     .547200000000D+06  .596046447754D-07  .440220380923D+00  .391155481339D-07
     .990838151380D+00  .195968750000D+03  .321109601150D+00 -.775710882900D-08
     .181078971237D-09  .100000000000D+01  .186100000000D+04  .000000000000D+00
     .240000000000D+01  .000000000000D+00 -.102445483208D-07  .420000000000D+02
     .540006000000D+06  .400000000000D+01
17 15  9 12  8  0  0.0 -.187425874174D-03 -.125055521494D-11  .000000000000D+00
     .140000000000D+02  .734375000000D+01  .474912639161D-08 -.926939185823D+00
     .450760126114D-06  .103636097629D-01  .253133475780D-05  .515356114006D+04
     .547200000000D+06 -.186264514923D-08  .146529222415D+01  .203028321266D-06
     .973216520454D+00  .338625000000D+03 -.200803771789D+01 -.851106880589D-08
    -.953611150304D-10  .100000000000D+01  .186100000000D+04  .000000000000D+00
     .240000000000D+01  .000000000000D+00 -.107102096081D-07  .140000000000D+02
     .540006000000D+06  .400000000000D+01
18 15  9 12  8  0  0.0  .433344859630D-03  .329691829393D-11  .000000000000D+00
     .130000000000D+02  .272500000000D+02  .512699927438D-08  .629318320240D+00
     .143796205521D-05  .163516195025D-01  .113919377327D-04  .515363691521D+04
     .547200000000D+06 -.240281224251D-06 -.279210782670D+01  .130385160446D-07
     .925476523755D+00  .143187500000D+03 -.193708336762D+01 -.855392773400D-08
     .313584490624D-09  .100000000000D+01  .186100000000D+04  .000000000000D+00
     .240000000000D+01  .000000000000D+00 -.111758708954D-07  .130000000000D+02
     .540006000000D+06  .400000000000D+01
19 15  9 12  8  0  0.0 -.519957859069D-03 -.682121026330D-12  .000000000000D+00
     .700000000000D+02  .256250000000D+01  .461412076808D-08 -.216174364731D+01
     .162050127983D-06  .113643696532D-01  .230967998505D-05  .515513265610D+04
     .547200000000D+06  .119209289551D-06  .151460332172D+01 -.968575477600D-07
     .970279276461D+00  .340031250000D+03  .648368774476D+00 -.824427197845D-08
     .575023952056D-10  .100000000000D+01  .186100000000D+04  .000000000000D+00
     .240000000000D+01  .000000000000D+00 -.149011611938D-07  .700000000000D+02
     .540006000000D+06  .400000000000D+01
20 15  9 12  8  0  0.0  .354619231075D-03  .306954461848D-11  .000000000000D+00
     .680000000000D+02  .332812500000D+02  .496306387439D-08 -.156341310799D+01
     .190548598766D-05  .488049862906D-02  .113472342491D-04  .515364589310D+04
     .547200000000D+06  .111758708954D-06 -.284426001944D+01  .782310962677D-07
     .926714313371D+00  .136218750000D+03  .121679523919D+01 -.821141346690D-08
     .439661170795D-09  .100000000000D+01  .186100000000D+04  .000000000000D+00
     .240000000000D+01  .000000000000D+00 -.838190317154D-08  .680000000000D+02
     .540006000000D+06  .400000000000D+01
21 15  9 12  8  0  0.0 -.479104463011D-03 -.284217094304D-11  .000000000000D+00
     .980000000000D+02 -.112562500000D+03  .497842165696D-08  .160965466842D+01
    -.620633363724D-05  .225579560502D-01  .801682472229D-05  .515376767731D+04
     .547200000000D+06 -.249594449997D-06  .244860396776D+01 -.510364770889D-06
     .934718394613D+00  .218031250000D+03 -.187911621742D+01 -.846892419326D-08
    -.453947480163D-09  .100000000000D+01  .186100000000D+04  .000000000000D+00
     .340000000000D+01  .000000000000D+00 -.116415321827D-07  .980000000000D+02
     .540006000000D+06  .400000000000D+01
22 15  9 12  8  0  0.0  .390556640923D-03  .375166564481D-11  .000000000000D+00
     .290000000000D+02  .277812500000D+02  .516664378288D-08  .146513112322D+00
     .150315463543D-05  .800828076899D-02  .109598040581D-04  .515368702507D+04
     .547200000000D+06 -.108033418655D-06 -.279113545578D+01  .124797224998D-06
     .923302296870D+00  .150687500000D+03 -.203906970380D+01 -.839856411962D-08
     .418588864478D-09  .100000000000D+01  .186100000000D+04  .000000000000D+00
     .240000000000D+01  .000000000000D+00 -.176951289177D-07  .290000000000D+02
     .540006000000D+06  .400000000000D+01
23 15  9 12  8  0  0.0 -.132732558995D-03 -.216004991671D-11  .000000000000D+00
     .122000000000D+03  .155312500000D+02  .527629120728D-08 -.206419508336D+01
     .469386577606D-06  .103962632129D-01  .342540442944D-05  .515379710960D+04
     .547200000000D+06  .143423676491D-06 -.171845111063D+01 -.113621354103D-06
     .947287284969D+00  .306031250000D+03 -.263031610768D+01 -.850964017496D-08
     .332156692802D-09  .100000000000D+01  .186100000000D+04  .000000000000D+00
     .240000000000D+01  .000000000000D+00 -.200234353542D-07  .122000000000D+03
     .540006000000D+06  .400000000000D+01
